

*******************************************************************************
Ephemeris / WWW_USER Thu May 16 10:41:49 2024 Pasadena, USA      / Horizons
*******************************************************************************
Target body name: 99942 Apophis (2004 MN4)        {source: JPL#218}
Center body name: Earth (399)                     {source: DE441}
Center-site name: BODY CENTER
*******************************************************************************
Start time      : A.D. 2029-Apr-13 15:46:00.0000 TDB
Stop  time      : A.D. 2029-Apr-14 03:46:00.0000 TDB
Step-size       : 1 minutes
*******************************************************************************
Center geodetic : 0.0, 0.0, 0.0                   {E-lon(deg),Lat(deg),Alt(km)}
Center cylindric: 0.0, 0.0, 0.0                   {E-lon(deg),Dxy(km),Dz(km)}
Center radii    : 6378.137, 6378.137, 6356.752 km {Equator_a, b, pole_c}
Small perturbers: Yes                             {source: SB441-N16}
Output units    : KM-S
Calendar mode   : Mixed Julian/Gregorian
Output type     : GEOMETRIC cartesian states
Output format   : 2 (position and velocity)
EOP file        : eop.240515.p240808
EOP coverage    : DATA-BASED 1962-JAN-20 TO 2024-MAY-15. PREDICTS-> 2024-AUG-07
Reference frame : Ecliptic of J2000.0
*******************************************************************************
Initial IAU76/J2000 heliocentric ecliptic osculating elements (au, days, deg.):
  EPOCH=  2459215.5 ! 2021-Jan-01.00 (TDB)         Residual RMS= .17952        
   EC= .1915216892529348   QR= .7458270479403062   TP= 2459101.039422418       
   OM= 204.0389271089114   W=  126.6520518833791   IN= 3.336751319526047       
  Equivalent ICRF heliocentric cartesian coordinates (au, au/d):
   X=-4.098530837957945E-01  Y= 9.070198867765817E-01  Z= 3.267919471926086E-01
  VX=-1.507552412223498E-02 VY=-3.713559924880165E-03 VZ=-1.761867984500986E-03
Asteroid physical parameters (km, seconds, rotational period in hours):        
   GM= n.a.                RAD= .170               ROTPER= 30.56               
   H= 19.09                G= .240                 B-V= n.a.                   
Non-default Earth gravity model (EOBL_LIM= au):                                
   EOBL_LIM= 1.000                                 EOBL_MOD = 2x0 (J2 only)    
Asteroid non-gravitational force model (AMRAT= m^2/kg;A1,A2,A3=au/d^2;R0=au):  
   AMRAT=  0.                                                                  
   A1= 4.999999873689E-13  A2= -2.901092102547E-14 A3= 0.                      
 Non-standard or simulated/proxy model:                                        
   ALN=  1.            NK=  0.       NM=  2.       NN=  5.093    R0=  1.       
*******************************************************************************
            JDTDB,            Calendar Date (TDB),                      X,                      Y,                      Z,                     VX,                     VY,                     VZ,
**************************************************************************************************************************************************************************************************
$$SOE
2462240.251388889, A.D. 2029-Apr-13 18:02:00.0000, -9.108716744914651E+04, -2.149725179477903E+04, -1.904586484722268E+04,  4.751288794301564E+00,  4.081252901299246E+00,  1.799657105415404E+00,
2462240.252083333, A.D. 2029-Apr-13 18:03:00.0000, -9.080201493769884E+04, -2.125235893310786E+04, -1.893786970698602E+04,  4.753798197999327E+00,  4.081842438477075E+00,  1.800181363891460E+00,
2462240.252777778, A.D. 2029-Apr-13 18:04:00.0000, -9.051671127012372E+04, -2.100743070848832E+04, -1.882984302806443E+04,  4.756327366702457E+00,  4.082431656816308E+00,  1.800708396964093E+00,
2462240.253472222, A.D. 2029-Apr-13 18:05:00.0000, -9.023125525411963E+04, -2.076246714181222E+04, -1.872178464356254E+04,  4.758876515179132E+00,  4.083020496817060E+00,  1.801238219527870E+00,
2462240.254166667, A.D. 2029-Apr-13 18:06:00.0000, -8.994564568439126E+04, -2.051746825761505E+04, -1.861369438564274E+04,  4.761445860987900E+00,  4.083608897284504E+00,  1.801770846419768E+00,
2462240.254861111, A.D. 2029-Apr-13 18:07:00.0000, -8.965988134250045E+04, -2.027243408415170E+04, -1.850557208560602E+04,  4.764035624515701E+00,  4.084196795284686E+00,  1.802306292412660E+00,
2462240.255555556, A.D. 2029-Apr-13 18:08:00.0000, -8.937396099668741E+04, -2.002736465348198E+04, -1.839741757388334E+04,  4.766646029016496E+00,  4.084784126098898E+00,  1.802844572208444E+00,
2462240.256250000, A.D. 2029-Apr-13 18:09:00.0000, -8.908788340169191E+04, -1.978226000164893E+04, -1.828923067997859E+04,  4.769277300650113E+00,  4.085370823177050E+00,  1.803385700431028E+00,
2462240.256944444, A.D. 2029-Apr-13 18:10:00.0000, -8.880164729872346E+04, -1.953712016869152E+04, -1.818101123257272E+04,  4.771929668521569E+00,  4.085956818089777E+00,  1.803929691618944E+00,
2462240.257638889, A.D. 2029-Apr-13 18:11:00.0000, -8.851525141498446E+04, -1.929194519888295E+04, -1.807275905943670E+04,  4.774603364720781E+00,  4.086542040479247E+00,  1.804476560217685E+00,
2462240.258333333, A.D. 2029-Apr-13 18:12:00.0000, -8.822869446370006E+04, -1.904673514069287E+04, -1.796447398751281E+04,  4.777298624362702E+00,  4.087126418008645E+00,  1.805026320571791E+00,
2462240.259027778, A.D. 2029-Apr-13 18:13:00.0000, -8.794197514402866E+04, -1.880149004706103E+04, -1.785615584285290E+04,  4.780015685627820E+00,  4.087709876310328E+00,  1.805578986916563E+00,
2462240.259722222, A.D. 2029-Apr-13 18:14:00.0000, -8.765509214058518E+04, -1.855620997540493E+04, -1.774780445069218E+04,  4.782754789803052E+00,  4.088292338932619E+00,  1.806134573369520E+00,
2462240.260416667, A.D. 2029-Apr-13 18:15:00.0000, -8.736804412350059E+04, -1.831089498784450E+04, -1.763941963536805E+04,  4.785516181323029E+00,  4.088873727285172E+00,  1.806693093921457E+00,
2462240.261111111, A.D. 2029-Apr-13 18:16:00.0000, -8.708082974818349E+04, -1.806554515120999E+04, -1.753100122045071E+04,  4.788300107811684E+00,  4.089453960582802E+00,  1.807254562427229E+00,
2462240.261805556, A.D. 2029-Apr-13 18:17:00.0000, -8.679344765487313E+04, -1.782016053728712E+04, -1.742254902865306E+04,  4.791106820124384E+00,  4.090032955788156E+00,  1.807818992596159E+00,
2462240.262500000, A.D. 2029-Apr-13 18:18:00.0000, -8.650589646899700E+04, -1.757474122293506E+04, -1.731406288184052E+04,  4.793936572390129E+00,  4.090610627552263E+00,  1.808386397982020E+00,
2462240.263194445, A.D. 2029-Apr-13 18:19:00.0000, -8.621817480033636E+04, -1.732928729016113E+04, -1.720554260112850E+04,  4.796789622054369E+00,  4.091186888154043E+00,  1.808956791972720E+00,
2462240.263888889, A.D. 2029-Apr-13 18:20:00.0000, -8.593028124320507E+04, -1.708379882633664E+04, -1.709698800678077E+04,  4.799666229921984E+00,  4.091761647437963E+00,  1.809530187779567E+00,
2462240.264583333, A.D. 2029-Apr-13 18:21:00.0000, -8.564221437630057E+04, -1.683827592430876E+04, -1.698839891829896E+04,  4.802566660200654E+00,  4.092334812750061E+00,  1.810106598426110E+00,
2462240.265277778, A.D. 2029-Apr-13 18:22:00.0000, -8.535397276219726E+04, -1.659271868254965E+04, -1.687977515441072E+04,  4.805491180544506E+00,  4.092906288872299E+00,  1.810686036736581E+00,
2462240.265972222, A.D. 2029-Apr-13 18:23:00.0000, -8.506555494740605E+04, -1.634712720534097E+04, -1.677111653308309E+04,  4.808440062098086E+00,  4.093475977955141E+00,  1.811268515323896E+00,
2462240.266666667, A.D. 2029-Apr-13 18:24:00.0000, -8.477695946207643E+04, -1.610150160289862E+04, -1.666242287152935E+04,  4.811413579540565E+00,  4.094043779448342E+00,  1.811854046577205E+00,
2462240.267361111, A.D. 2029-Apr-13 18:25:00.0000, -8.448818481963873E+04, -1.585584199158160E+04, -1.655369398620370E+04,  4.814412011130242E+00,  4.094609590029886E+00,  1.812442642648994E+00,
2462240.268055555, A.D. 2029-Apr-13 18:26:00.0000, -8.419922951686382E+04, -1.561014849400481E+04, -1.644492969287422E+04,  4.817435638749258E+00,  4.095173303533075E+00,  1.813034315441669E+00,
2462240.268750000, A.D. 2029-Apr-13 18:27:00.0000, -8.391009203335643E+04, -1.536442123923307E+04, -1.633612980658334E+04,  4.820484747948615E+00,  4.095734810871598E+00,  1.813629076593693E+00,
2462240.269444444, A.D. 2029-Apr-13 18:28:00.0000, -8.362077083170414E+04, -1.511866036301371E+04, -1.622729414169729E+04,  4.823559627993109E+00,  4.096293999962791E+00,  1.814226937465183E+00,
2462240.270138889, A.D. 2029-Apr-13 18:29:00.0000, -8.333126435679197E+04, -1.487286600786988E+04, -1.611842251187783E+04,  4.826660571906993E+00,  4.096850755648531E+00,  1.814827909122952E+00,
2462240.270833333, A.D. 2029-Apr-13 18:30:00.0000, -8.304157103592157E+04, -1.462703832332588E+04, -1.600951473017129E+04,  4.829787876519235E+00,  4.097404959614333E+00,  1.815432002325069E+00,
2462240.271527778, A.D. 2029-Apr-13 18:31:00.0000, -8.275168927839398E+04, -1.438117746613989E+04, -1.590057060896453E+04,  4.832941842509205E+00,  4.097956490306200E+00,  1.816039227504780E+00,
2462240.272222222, A.D. 2029-Apr-13 18:32:00.0000, -8.246161747547984E+04, -1.413528360041321E+04, -1.579158996003101E+04,  4.836122774452429E+00,  4.098505222845192E+00,  1.816649594753895E+00,
2462240.272916667, A.D. 2029-Apr-13 18:33:00.0000, -8.217135400000215E+04, -1.388935689788729E+04, -1.568257259456030E+04,  4.839330980866315E+00,  4.099051028939821E+00,  1.817263113805536E+00,
2462240.273611111, A.D. 2029-Apr-13 18:34:00.0000, -8.188089720609784E+04, -1.364339753806407E+04, -1.557351832315466E+04,  4.842566774256056E+00,  4.099593776796125E+00,  1.817879794016269E+00,
2462240.274305556, A.D. 2029-Apr-13 18:35:00.0000, -8.159024542903900E+04, -1.339740570849677E+04, -1.546442695588164E+04,  4.845830471160465E+00,  4.100133331025249E+00,  1.818499644347623E+00,
